SAGR31 KWBC 110120
METAR LGAD 110120Z AUTO VRB03KT //// // ////// 17/16 Q1012 RE//=
METAR LGAZ NIL=
METAR LGEL 110120Z /////KT CAVOK 22/14 Q1008=
METAR LGIR 110120Z 27012KT CAVOK 23/11 Q1011 NOSIG=
METAR LGKF 110120Z NIL=
METAR LGKL 110120Z 00000KT 9999 SCTO3O 18/16 Q1012=
METAR LGKO 110120Z VRB02KT CAVOK 20/18 Q1009=
METAR LGKR 110120Z 00000KT 9999 FEW014 SCT080 19/16 Q1011 NOSIG=
