FTBZ06 SBBR 110000 RRA
TAF SBAT 102100Z 1100/1112 00000KT
   CAVOK TX27/1100Z TN21/1108Z
   BECMG 1110/1112 09005KT RMK PEO=
TAF SBBE 102100Z 1100/1124 35005KT 9999 SCT020 FEW025TCU TN25/1107Z TX32/1116Z
   BECMG 1101/1103 07005KT 9999 FEW020 RMK PDZ=
TAF SBBR 102100Z 1100/1124 06005KT
   CAVOK TN15/1108Z TX28/1118Z
   BECMG 1113/1115 06010KT 9999 SCT040
   BECMG 1120/1122 04003KT
   CAVOK RMK PEO=
TAF SBBV 102100Z 1100/1124 14007KT 9999 BKN030 FEW035TCU TN24/1107Z TX31/1118Z
   BECMG 1101/1103 5000 RA BKN010
   PROB40 1103/1110 BKN005
   BECMG 1113/1115 07007KT BKN030 FEW035TCU RMK PDZ=
TAF SBCF 102100Z 1100/1124 00000KT
   CAVOK TN14/1109Z TX27/1118Z
   BECMG 1109/1111 14001KT
   BECMG 1114/1116 34005KT 9999 FEW030
   BECMG 1120/1122 01005KT
   CAVOK RMK PAY=
